ALOS (DAICHI)           
1 28931U 06002A   24129.42575895  .00002565  00000+0  48146-3 0  9997
2 28931  98.0345  83.3462 0000727  76.5540 283.5744 14.65553576975521
